$$SOE
2460728.500000000, A.D. 2025-Feb-22 00:00:00.0000, -1.290064276096311E+08, 3.817068435434903E+08, -1.058648200765459E+07,
2460735.500000000, A.D. 2025-Mar-01 00:00:00.0000, -1.383571484263180E+08, 3.771446868077420E+08, -1.072681122974423E+07,
2460742.500000000, A.D. 2025-Mar-08 00:00:00.0000, -1.476042501278287E+08, 3.723005528239848E+08, -1.085911397870648E+07,
2460749.500000000, A.D. 2025-Mar-15 00:00:00.0000, -1.567397996546507E+08, 3.671755003920699E+08, -1.098321684310855E+07,
2460756.500000000, A.D. 2025-Mar-22 00:00:00.0000, -1.657557796614828E+08, 3.617707703134668E+08, -1.109894758230585E+07,
2460763.500000000, A.D. 2025-Mar-29 00:00:00.0000, -1.746440895929146E+08, 3.560877910876223E+08, -1.120613534173146E+07,
2460770.500000000, A.D. 2025-Apr-05 00:00:00.0000, -1.833965453771956E+08, 3.501281858587221E+08, -1.130461096529782E+07,
2460777.500000000, A.D. 2025-Apr-12 00:00:00.0000, -1.920048796957855E+08, 3.438937807240180E+08, -1.139420722143185E+07,
2460784.500000000, A.D. 2025-Apr-19 00:00:00.0000, -2.004607430479320E+08, 3.373866135248194E+08, -1.147475899873808E+07,
2460791.500000000, A.D. 2025-Apr-26 00:00:00.0000, -2.087557053742761E+08, 3.306089429171578E+08, -1.154610351375541E+07,
2460798.500000000, A.D. 2025-May-03 00:00:00.0000, -2.168812581645119E+08, 3.235632577404434E+08, -1.160808054071254E+07,
2460805.500000000, A.D. 2025-May-10 00:00:00.0000, -2.248288170616775E+08, 3.162522866904109E+08, -1.166053266628447E+07,
2460812.500000000, A.D. 2025-May-17 00:00:00.0000, -2.325897249698781E+08, 3.086790082507458E+08, -1.170330557714191E+07,
2460819.500000000, A.D. 2025-May-24 00:00:00.0000, -2.401552555374204E+08, 3.008466608215653E+08, -1.173624840170969E+07,
2460826.500000000, A.D. 2025-May-31 00:00:00.0000, -2.475166166460628E+08, 2.927587533449935E+08, -1.175921411998503E+07,
2460833.500000000, A.D. 2025-Jun-07 00:00:00.0000, -2.546649543594697E+08, 2.844190776186453E+08, -1.177205990720966E+07,
2460840.500000000, A.D. 2025-Jun-14 00:00:00.0000, -2.615913597513815E+08, 2.758317216149031E+08, -1.177464725046718E+07,
2460847.500000000, A.D. 2025-Jun-21 00:00:00.0000, -2.682868774506657E+08, 2.670010805152144E+08, -1.176684221825151E+07,
2460854.500000000, A.D. 2025-Jun-28 00:00:00.0000, -2.747425128291142E+08, 2.579318671927036E+08, -1.174851602559936E+07,
2460861.500000000, A.D. 2025-Jul-05 00:00:00.0000, -2.809492394124306E+08, 2.486291242646934E+08, -1.171954558015092E+07,
2460868.500000000, A.D. 2025-Jul-12 00:00:00.0000, -2.868980077707183E+08, 2.390982368748983E+08, -1.167981396712168E+07,
2460875.500000000, A.D. 2025-Jul-19 00:00:00.0000, -2.925797557619299E+08, 2.293449455869410E+08, -1.162921093828386E+07,
2460882.500000000, A.D. 2025-Jul-26 00:00:00.0000, -2.979854199825912E+08, 2.193753592801786E+08, -1.156763342916420E+07,
2460889.500000000, A.D. 2025-Aug-02 00:00:00.0000, -3.031059484261420E+08, 2.091959680092447E+08, -1.149498610893407E+07,
2460896.500000000, A.D. 2025-Aug-09 00:00:00.0000, -3.079323143915817E+08, 1.988136557443422E+08, -1.141118196644948E+07,
2460903.500000000, A.D. 2025-Aug-16 00:00:00.0000, -3.124555316309632E+08, 1.882357128517938E+08, -1.131614294456259E+07,
2460910.500000000, A.D. 2025-Aug-23 00:00:00.0000, -3.166666705069872E+08, 1.774698482442129E+08, -1.120980064779690E+07,
2460917.500000000, A.D. 2025-Aug-30 00:00:00.0000, -3.205568748931248E+08, 1.665242018162769E+08, -1.109209709446873E+07,
2460924.500000000, A.D. 2025-Sep-06 00:00:00.0000, -3.241173812938631E+08, 1.554073580567723E+08, -1.096298530056474E+07,
2460931.500000000, A.D. 2025-Sep-13 00:00:00.0000, -3.273395419140747E+08, 1.441283582352094E+08, -1.082242974442803E+07,
2460938.500000000, A.D. 2025-Sep-20 00:00:00.0000, -3.302148484529774E+08, 1.326967093907114E+08, -1.067040714548939E+07,
2460945.500000000, A.D. 2025-Sep-27 00:00:00.0000, -3.327349555992101E+08, 1.211223930891868E+08, -1.050690739689146E+07,
2460952.500000000, A.D. 2025-Oct-04 00:00:00.0000, -3.348917062769058E+08, 1.094158743273837E+08, -1.033193442060352E+07,
2460959.500000000, A.D. 2025-Oct-11 00:00:00.0000, -3.366771590434348E+08, 9.758810947436951E+07, -1.014550698607424E+07,
2460966.500000000, A.D. 2025-Oct-18 00:00:00.0000, -3.380836173642610E+08, 8.565055280058026E+07, -9.947659537972555E+06,
2460973.500000000, A.D. 2025-Oct-25 00:00:00.0000, -3.391036606139219E+08, 7.361516141731960E+07, -9.738443040607776E+06,
2460980.500000000, A.D. 2025-Nov-01 00:00:00.0000, -3.397301767306694E+08, 6.149439844051723E+07, -9.517925835774293E+06,
2460987.500000000, A.D. 2025-Nov-08 00:00:00.0000, -3.399563964362062E+08, 4.930123413107908E+07, -9.286194513195576E+06,
2460994.500000000, A.D. 2025-Nov-15 00:00:00.0000, -3.397759288009974E+08, 3.704914472449015E+07, -9.043354805289455E+06,
2461001.500000000, A.D. 2025-Nov-22 00:00:00.0000, -3.391827976637815E+08, 2.475210893514994E+07, -8.789532519112462E+06,
2461008.500000000, A.D. 2025-Nov-29 00:00:00.0000, -3.381714789465791E+08, 1.242460303628877E+07, -8.524874392641783E+06,
2461015.500000000, A.D. 2025-Dec-06 00:00:00.0000, -3.367369410006961E+08, 8.159414699983969E+04, -8.249548670889394E+06,
2461022.500000000, A.D. 2025-Dec-13 00:00:00.0000, -3.348746873768126E+08, -1.226147187340371E+07, -7.963745709375162E+06,
2461029.500000000, A.D. 2025-Dec-20 00:00:00.0000, -3.325807983149247E+08, -2.458868712190145E+07, -7.667678832205081E+06,
2461036.500000000, A.D. 2025-Dec-27 00:00:00.0000, -3.298519717717102E+08, -3.688370056151272E+07, -7.361585122836534E+06,
2461043.500000000, A.D. 2026-Jan-03 00:00:00.0000, -3.266855651526548E+08, -4.912973996633504E+07, -7.045726052299082E+06,
2461050.500000000, A.D. 2026-Jan-10 00:00:00.0000, -3.230796373195012E+08, -6.130963776874481E+07, -6.720387999424268E+06,
2461057.500000000, A.D. 2026-Jan-17 00:00:00.0000, -3.190329902868681E+08, -7.340586105918966E+07, -6.385882680357989E+06,
2461064.500000000, A.D. 2026-Jan-24 00:00:00.0000, -3.145452101389219E+08, -8.540054584236383E+07, -6.042547480327472E+06,
2461071.500000000, A.D. 2026-Jan-31 00:00:00.0000, -3.096167067173027E+08, -9.727553564716765E+07, -5.690745677939378E+06,
2461078.500000000, A.D. 2026-Feb-07 00:00:00.0000, -3.042487515638126E+08, -1.090124245948863E+08, -5.330866560066387E+06,
2461085.500000000, A.D. 2026-Feb-14 00:00:00.0000, -2.984435133844536E+08, -1.205926049384061E+08, -4.963325439897835E+06,
2461092.500000000, A.D. 2026-Feb-21 00:00:00.0000, -2.922040901461341E+08, -1.319973184371940E+08, -4.588563555190489E+06,
2461099.500000000, A.D. 2026-Feb-28 00:00:00.0000, -2.855345383743008E+08, -1.432077102954985E+08, -4.207047642441027E+06,
2461106.500000000, A.D. 2026-Mar-07 00:00:00.0000, -2.784399011869826E+08, -1.542048874315139E+08, -3.819269148480579E+06,
2461113.500000000, A.D. 2026-Mar-14 00:00:00.0000, -2.709262317734835E+08, -1.649699831618093E+08, -3.425743517421313E+06,
2461120.500000000, A.D. 2026-Mar-21 00:00:00.0000, -2.630006100330081E+08, -1.754842250807058E+08, -3.027009473479532E+06,
2461127.500000000, A.D. 2026-Mar-28 00:00:00.0000, -2.546711538985959E+08, -1.857290047067849E+08, -2.623628026332334E+06,
2461134.500000000, A.D. 2026-Apr-04 00:00:00.0000, -2.459470254949771E+08, -1.956859493916761E+08, -2.216181219965219E+06,
2461141.500000000, A.D. 2026-Apr-11 00:00:00.0000, -2.368384314474024E+08, -2.053369963160300E+08, -1.805270680264309E+06,
2461148.500000000, A.D. 2026-Apr-18 00:00:00.0000, -2.273566168350580E+08, -2.146644679815641E+08, -1.391515980081707E+06,
2461155.500000000, A.D. 2026-Apr-25 00:00:00.0000, -2.175138524662189E+08, -2.236511485249674E+08, -9.755528305418044E+05,
2461162.500000000, A.D. 2026-May-02 00:00:00.0000, -2.073234152434060E+08, -2.322803601696665E+08, -5.580311120697707E+05,
2461169.500000000, A.D. 2026-May-09 00:00:00.0000, -1.967995613769489E+08, -2.405360391256958E+08, -1.396127731706798E+05,
2461176.500000000, A.D. 2026-May-16 00:00:00.0000, -1.859574920436291E+08, -2.484028100141881E+08, 2.790303654535264E+05,
2461183.500000000, A.D. 2026-May-23 00:00:00.0000, -1.748133115101455E+08, -2.558660569946112E+08, 6.972189630749226E+05,
2461190.500000000, A.D. 2026-May-30 00:00:00.0000, -1.633839799717796E+08, -2.629119904782626E+08, 1.114268864049405E+06,
2461197.500000000, A.D. 2026-Jun-06 00:00:00.0000, -1.516872617000602E+08, -2.695277119275799E+08, 1.529493894505531E+06,
2461204.500000000, A.D. 2026-Jun-13 00:00:00.0000, -1.397416652197123E+08, -2.757012758091225E+08, 1.942208405800894E+06,
2461211.500000000, A.D. 2026-Jun-20 00:00:00.0000, -1.275663765077640E+08, -2.814217450894848E+08, 2.351729824150696E+06,
2461218.500000000, A.D. 2026-Jun-27 00:00:00.0000, -1.151811874986075E+08, -2.866792399874731E+08, 2.757381308123097E+06,
2461225.500000000, A.D. 2026-Jul-04 00:00:00.0000, -1.026064205619475E+08, -2.914649802030452E+08, 3.158494423880666E+06,
2461232.500000000, A.D. 2026-Jul-11 00:00:00.0000, -8.986284943400089E+07, -2.957713202866401E+08, 3.554411776964664E+06,
2461239.500000000, A.D. 2026-Jul-18 00:00:00.0000, -7.697161729741788E+07, -2.995917777553427E+08, 3.944489567314208E+06,
2461246.500000000, A.D. 2026-Jul-25 00:00:00.0000, -6.395415281687235E+07, -3.029210536948458E+08, 4.328100040212542E+06,
2461253.500000000, A.D. 2026-Aug-01 00:00:00.0000, -5.083208494279654E+07, -3.057550457448788E+08, 4.704633801967174E+06,
2461260.500000000, A.D. 2026-Aug-08 00:00:00.0000, -3.762715713630968E+07, -3.080908534568828E+08, 5.073501956670389E+06,
2461267.500000000, A.D. 2026-Aug-15 00:00:00.0000, -2.436114145144374E+07, -3.099267756318328E+08, 5.434138042781323E+06,
2461274.500000000, A.D. 2026-Aug-22 00:00:00.0000, -1.105575405234246E+07, -3.112622985877323E+08, 5.785999920503870E+06,
2461281.500000000, A.D. 2026-Aug-29 00:00:00.0000, 2.267424771832105E+06, -3.120980770143349E+08, 6.128571691921741E+06,
2461288.500000000, A.D. 2026-Sep-05 00:00:00.0000, 1.558702750247159E+07, -3.124359106728224E+08, 6.461365212422356E+06,
$$EOE